<?xml version="1.0" encoding="UTF-8"?>
<ndm xmlns:xsi="http://www.w3.org/2001/XMLSchema-instance" xsi:noNamespaceSchemaLocation="https://sanaregistry.org/r/ndmxml_unqualified/ndmxml-2.0.0-master-2.0.xsd">
<omm id="CCSDS_OMM_VERS" version="2.0">
<header><CREATION_DATE/><ORIGINATOR/></header><body><segment><metadata><OBJECT_NAME>ORBCOMM FM05 [-]</OBJECT_NAME><OBJECT_ID>1997-084F</OBJECT_ID><CENTER_NAME>EARTH</CENTER_NAME><REF_FRAME>TEME</REF_FRAME><TIME_SYSTEM>UTC</TIME_SYSTEM><MEAN_ELEMENT_THEORY>SGP4</MEAN_ELEMENT_THEORY></metadata><data><meanElements><EPOCH>2023-09-10T05:21:20.534112</EPOCH><MEAN_MOTION>14.41342323</MEAN_MOTION><ECCENTRICITY>.0003344</ECCENTRICITY><INCLINATION>45.0156</INCLINATION><RA_OF_ASC_NODE>217.3289</RA_OF_ASC_NODE><ARG_OF_PERICENTER>258.1485</ARG_OF_PERICENTER><MEAN_ANOMALY>101.8990</MEAN_ANOMALY></meanElements><tleParameters><EPHEMERIS_TYPE>0</EPHEMERIS_TYPE><CLASSIFICATION_TYPE>U</CLASSIFICATION_TYPE><NORAD_CAT_ID>25117</NORAD_CAT_ID><ELEMENT_SET_NO>999</ELEMENT_SET_NO><REV_AT_EPOCH>34821</REV_AT_EPOCH><BSTAR>.58398E-3</BSTAR><MEAN_MOTION_DOT>.1765E-4</MEAN_MOTION_DOT><MEAN_MOTION_DDOT>0</MEAN_MOTION_DDOT></tleParameters></data></segment></body></omm>
<omm id="CCSDS_OMM_VERS" version="2.0">
<header><CREATION_DATE/><ORIGINATOR/></header><body><segment><metadata><OBJECT_NAME>ORBCOMM FM06 [+]</OBJECT_NAME><OBJECT_ID>1997-084G</OBJECT_ID><CENTER_NAME>EARTH</CENTER_NAME><REF_FRAME>TEME</REF_FRAME><TIME_SYSTEM>UTC</TIME_SYSTEM><MEAN_ELEMENT_THEORY>SGP4</MEAN_ELEMENT_THEORY></metadata><data><meanElements><EPOCH>2023-09-10T04:21:33.600096</EPOCH><MEAN_MOTION>14.41273952</MEAN_MOTION><ECCENTRICITY>.0003074</ECCENTRICITY><INCLINATION>45.0149</INCLINATION><RA_OF_ASC_NODE>217.6701</RA_OF_ASC_NODE><ARG_OF_PERICENTER>274.9893</ARG_OF_PERICENTER><MEAN_ANOMALY>100.9255</MEAN_ANOMALY></meanElements><tleParameters><EPHEMERIS_TYPE>0</EPHEMERIS_TYPE><CLASSIFICATION_TYPE>U</CLASSIFICATION_TYPE><NORAD_CAT_ID>25118</NORAD_CAT_ID><ELEMENT_SET_NO>999</ELEMENT_SET_NO><REV_AT_EPOCH>34820</REV_AT_EPOCH><BSTAR>.58952E-3</BSTAR><MEAN_MOTION_DOT>.178E-4</MEAN_MOTION_DOT><MEAN_MOTION_DDOT>0</MEAN_MOTION_DDOT></tleParameters></data></segment></body></omm>
<omm id="CCSDS_OMM_VERS" version="2.0">
<header><CREATION_DATE/><ORIGINATOR/></header><body><segment><metadata><OBJECT_NAME>ORBCOMM FM07 [-]</OBJECT_NAME><OBJECT_ID>1997-084H</OBJECT_ID><CENTER_NAME>EARTH</CENTER_NAME><REF_FRAME>TEME</REF_FRAME><TIME_SYSTEM>UTC</TIME_SYSTEM><MEAN_ELEMENT_THEORY>SGP4</MEAN_ELEMENT_THEORY></metadata><data><meanElements><EPOCH>2023-09-09T07:51:05.169888</EPOCH><MEAN_MOTION>14.41215868</MEAN_MOTION><ECCENTRICITY>.0003344</ECCENTRICITY><INCLINATION>45.0143</INCLINATION><RA_OF_ASC_NODE>222.1678</RA_OF_ASC_NODE><ARG_OF_PERICENTER>239.4552</ARG_OF_PERICENTER><MEAN_ANOMALY>120.5968</MEAN_ANOMALY></meanElements><tleParameters><EPHEMERIS_TYPE>0</EPHEMERIS_TYPE><CLASSIFICATION_TYPE>U</CLASSIFICATION_TYPE><NORAD_CAT_ID>25119</NORAD_CAT_ID><ELEMENT_SET_NO>999</ELEMENT_SET_NO><REV_AT_EPOCH>34805</REV_AT_EPOCH><BSTAR>.54051E-3</BSTAR><MEAN_MOTION_DOT>.1618E-4</MEAN_MOTION_DOT><MEAN_MOTION_DDOT>0</MEAN_MOTION_DDOT></tleParameters></data></segment></body></omm>
<omm id="CCSDS_OMM_VERS" version="2.0">
<header><CREATION_DATE/><ORIGINATOR/></header><body><segment><metadata><OBJECT_NAME>ORBCOMM FM03 [-]</OBJECT_NAME><OBJECT_ID>1998-007B</OBJECT_ID><CENTER_NAME>EARTH</CENTER_NAME><REF_FRAME>TEME</REF_FRAME><TIME_SYSTEM>UTC</TIME_SYSTEM><MEAN_ELEMENT_THEORY>SGP4</MEAN_ELEMENT_THEORY></metadata><data><meanElements><EPOCH>2023-09-09T22:45:04.569120</EPOCH><MEAN_MOTION>14.31222506</MEAN_MOTION><ECCENTRICITY>.004968</ECCENTRICITY><INCLINATION>107.9825</INCLINATION><RA_OF_ASC_NODE>251.3995</RA_OF_ASC_NODE><ARG_OF_PERICENTER>295.3751</ARG_OF_PERICENTER><MEAN_ANOMALY>64.2249</MEAN_ANOMALY></meanElements><tleParameters><EPHEMERIS_TYPE>0</EPHEMERIS_TYPE><CLASSIFICATION_TYPE>U</CLASSIFICATION_TYPE><NORAD_CAT_ID>25158</NORAD_CAT_ID><ELEMENT_SET_NO>999</ELEMENT_SET_NO><REV_AT_EPOCH>33162</REV_AT_EPOCH><BSTAR>.56983E-3</BSTAR><MEAN_MOTION_DOT>.1397E-4</MEAN_MOTION_DOT><MEAN_MOTION_DDOT>0</MEAN_MOTION_DDOT></tleParameters></data></segment></body></omm>
<omm id="CCSDS_OMM_VERS" version="2.0">
<header><CREATION_DATE/><ORIGINATOR/></header><body><segment><metadata><OBJECT_NAME>ORBCOMM FM04 [+]</OBJECT_NAME><OBJECT_ID>1998-007C</OBJECT_ID><CENTER_NAME>EARTH</CENTER_NAME><REF_FRAME>TEME</REF_FRAME><TIME_SYSTEM>UTC</TIME_SYSTEM><MEAN_ELEMENT_THEORY>SGP4</MEAN_ELEMENT_THEORY></metadata><data><meanElements><EPOCH>2023-09-09T13:29:05.839296</EPOCH><MEAN_MOTION>14.31499733</MEAN_MOTION><ECCENTRICITY>.0045153</ECCENTRICITY><INCLINATION>107.9810</INCLINATION><RA_OF_ASC_NODE>253.3830</RA_OF_ASC_NODE><ARG_OF_PERICENTER>294.0219</ARG_OF_PERICENTER><MEAN_ANOMALY>65.6197</MEAN_ANOMALY></meanElements><tleParameters><EPHEMERIS_TYPE>0</EPHEMERIS_TYPE><CLASSIFICATION_TYPE>U</CLASSIFICATION_TYPE><NORAD_CAT_ID>25159</NORAD_CAT_ID><ELEMENT_SET_NO>999</ELEMENT_SET_NO><REV_AT_EPOCH>33159</REV_AT_EPOCH><BSTAR>.50849E-3</BSTAR><MEAN_MOTION_DOT>.1237E-4</MEAN_MOTION_DOT><MEAN_MOTION_DDOT>0</MEAN_MOTION_DDOT></tleParameters></data></segment></body></omm>
<omm id="CCSDS_OMM_VERS" version="2.0">
<header><CREATION_DATE/><ORIGINATOR/></header><body><segment><metadata><OBJECT_NAME>ORBCOMM FM17 [-]</OBJECT_NAME><OBJECT_ID>1998-046A</OBJECT_ID><CENTER_NAME>EARTH</CENTER_NAME><REF_FRAME>TEME</REF_FRAME><TIME_SYSTEM>UTC</TIME_SYSTEM><MEAN_ELEMENT_THEORY>SGP4</MEAN_ELEMENT_THEORY></metadata><data><meanElements><EPOCH>2023-09-09T10:23:22.290432</EPOCH><MEAN_MOTION>14.32285966</MEAN_MOTION><ECCENTRICITY>.0002335</ECCENTRICITY><INCLINATION>44.9956</INCLINATION><RA_OF_ASC_NODE>62.6176</RA_OF_ASC_NODE><ARG_OF_PERICENTER>201.6822</ARG_OF_PERICENTER><MEAN_ANOMALY>158.3925</MEAN_ANOMALY></meanElements><tleParameters><EPHEMERIS_TYPE>0</EPHEMERIS_TYPE><CLASSIFICATION_TYPE>U</CLASSIFICATION_TYPE><NORAD_CAT_ID>25413</NORAD_CAT_ID><ELEMENT_SET_NO>999</ELEMENT_SET_NO><REV_AT_EPOCH>31036</REV_AT_EPOCH><BSTAR>.40306E-3</BSTAR><MEAN_MOTION_DOT>.957E-5</MEAN_MOTION_DOT><MEAN_MOTION_DDOT>0</MEAN_MOTION_DDOT></tleParameters></data></segment></body></omm>
<omm id="CCSDS_OMM_VERS" version="2.0">
<header><CREATION_DATE/><ORIGINATOR/></header><body><segment><metadata><OBJECT_NAME>ORBCOMM FM18 [-]</OBJECT_NAME><OBJECT_ID>1998-046B</OBJECT_ID><CENTER_NAME>EARTH</CENTER_NAME><REF_FRAME>TEME</REF_FRAME><TIME_SYSTEM>UTC</TIME_SYSTEM><MEAN_ELEMENT_THEORY>SGP4</MEAN_ELEMENT_THEORY></metadata><data><meanElements><EPOCH>2023-09-10T03:37:10.079904</EPOCH><MEAN_MOTION>14.34756396</MEAN_MOTION><ECCENTRICITY>.0005404</ECCENTRICITY><INCLINATION>44.9962</INCLINATION><RA_OF_ASC_NODE>351.2308</RA_OF_ASC_NODE><ARG_OF_PERICENTER>258.8446</ARG_OF_PERICENTER><MEAN_ANOMALY>101.1793</MEAN_ANOMALY></meanElements><tleParameters><EPHEMERIS_TYPE>0</EPHEMERIS_TYPE><CLASSIFICATION_TYPE>U</CLASSIFICATION_TYPE><NORAD_CAT_ID>25414</NORAD_CAT_ID><ELEMENT_SET_NO>999</ELEMENT_SET_NO><REV_AT_EPOCH>31152</REV_AT_EPOCH><BSTAR>.48512E-3</BSTAR><MEAN_MOTION_DOT>.1247E-4</MEAN_MOTION_DOT><MEAN_MOTION_DDOT>0</MEAN_MOTION_DDOT></tleParameters></data></segment></body></omm>
<omm id="CCSDS_OMM_VERS" version="2.0">
<header><CREATION_DATE/><ORIGINATOR/></header><body><segment><metadata><OBJECT_NAME>ORBCOMM FM19 [+]</OBJECT_NAME><OBJECT_ID>1998-046C</OBJECT_ID><CENTER_NAME>EARTH</CENTER_NAME><REF_FRAME>TEME</REF_FRAME><TIME_SYSTEM>UTC</TIME_SYSTEM><MEAN_ELEMENT_THEORY>SGP4</MEAN_ELEMENT_THEORY></metadata><data><meanElements><EPOCH>2023-09-09T14:33:38.379744</EPOCH><MEAN_MOTION>14.34638292</MEAN_MOTION><ECCENTRICITY>.0004396</ECCENTRICITY><INCLINATION>44.9970</INCLINATION><RA_OF_ASC_NODE>354.9117</RA_OF_ASC_NODE><ARG_OF_PERICENTER>246.2476</ARG_OF_PERICENTER><MEAN_ANOMALY>127.0413</MEAN_ANOMALY></meanElements><tleParameters><EPHEMERIS_TYPE>0</EPHEMERIS_TYPE><CLASSIFICATION_TYPE>U</CLASSIFICATION_TYPE><NORAD_CAT_ID>25415</NORAD_CAT_ID><ELEMENT_SET_NO>999</ELEMENT_SET_NO><REV_AT_EPOCH>31124</REV_AT_EPOCH><BSTAR>.54627E-3</BSTAR><MEAN_MOTION_DOT>.1418E-4</MEAN_MOTION_DOT><MEAN_MOTION_DDOT>0</MEAN_MOTION_DDOT></tleParameters></data></segment></body></omm>

</ndm>
