ORBCOMM FM05 [-]        
1 25117U 97084F   23253.22315433  .00001765  00000+0  58398-3 0  9996
2 25117  45.0156 217.3289 0003344 258.1485 101.8990 14.41342323348211
ORBCOMM FM06 [+]        
1 25118U 97084G   23253.18163889  .00001780  00000+0  58952-3 0  9991
2 25118  45.0149 217.6701 0003074 274.9893 100.9255 14.41273952348209
ORBCOMM FM07 [-]        
1 25119U 97084H   23252.32714317  .00001618  00000+0  54051-3 0  9991
2 25119  45.0143 222.1678 0003344 239.4552 120.5968 14.41215868348050
ORBCOMM FM03 [-]        
1 25158U 98007B   23252.94796955  .00001397  00000+0  56983-3 0  9996
2 25158 107.9825 251.3995 0049680 295.3751  64.2249 14.31222506331626
ORBCOMM FM04 [+]        
1 25159U 98007C   23252.56187314  .00001237  00000+0  50849-3 0  9996
2 25159 107.9810 253.3830 0045153 294.0219  65.6197 14.31499733331598
ORBCOMM FM17 [-]        
1 25413U 98046A   23252.43289688  .00000957  00000+0  40306-3 0  9990
2 25413  44.9956  62.6176 0002335 201.6822 158.3925 14.32285966310368
ORBCOMM FM18 [-]        
1 25414U 98046B   23253.15081111  .00001247  00000+0  48512-3 0  9992
2 25414  44.9962 351.2308 0005404 258.8446 101.1793 14.34756396311526
ORBCOMM FM19 [+]        
1 25415U 98046C   23252.60669421  .00001418  00000+0  54627-3 0  9992
2 25415  44.9970 354.9117 0004396 246.2476 127.0413 14.34638292311246
